RS-44
1 44909U 19096E   22286.32466658  .00000032  00000-0  78937-4 0  9994
2 44909  82.5212 151.9890 0218208  44.3125 317.5214 12.79715794130583
FO-29
1 24278U 96046B   22286.29764434 -.00000012  00000-0  25817-4 0  9998
2 24278  98.5152 293.7651 0349928 337.6777  20.9444 13.53122298291543
ISS
1 25544U 98067A   22363.95879745  .00017967  00000-0  32488-3 0  9998
2 25544  51.6443  86.7876 0005594 203.6924 320.3016 15.49741932375540
SO-50
1 27607U 02058C   22286.46834340  .00001488  00000-0  22286-3 0  9993
2 27607  64.5550 300.7142 0081666 271.9818  87.1934 14.76315971 65792
IO-86
1 40931U 15052B   22286.49730258  .00001444  00000-0  11125-3 0  9994
2 40931   5.9958  46.9622 0013734  38.5723 321.5399 14.76887187380820
UVSQ-SAT
1 47438U 21006AB  22286.40752760  .00010304  00000-0  52271-3 0  9994
2 47438  97.4235 343.0073 0010598 219.0358 141.0112 15.17071493 95157
HO-113
1 50466U 21131B   22286.83477281  .00000433  00000-0  15619-3 0  9994
2 50466  98.5732   3.9904 0005352 147.3078 212.8442 14.38546964 41937
IO-117
1 53106U 22080B   22354.08419093 -.00000003  00000-0  00000+0 0  9990
2 53106  70.1702  21.9397 0008914 226.9685 182.2049  6.42557326 10248
FO-118
1 54684U 22167C   22363.83617980  .00007215  00000-0  45895-3 0  9992
2 54684  97.5387 138.4746 0014286 192.6508 313.2665 15.09019068  3090
CAS-10
1 54816U 21035C   22363.63331686  .00093945  00000-0  10200-2 0  9992
2 54816  41.4774 109.0086 0007780 268.4333  91.5612 15.62395239  1682